{
    "links": {
        "self": "http://www.neowsapp.com/rest/v1/neo/3684354?api_key=iIulBulltgU6a56xZRHN4H3l9WmuAYTsLGpBGhQ2"
    },
    "id": "3684354",
    "neo_reference_id": "3684354",
    "name": "(2014 QV362)",
    "designation": "2014 QV362",
    "nasa_jpl_url": "http://ssd.jpl.nasa.gov/sbdb.cgi?sstr=3684354",
    "absolute_magnitude_h": 23.4,
    "estimated_diameter": {
        "kilometers": {
            "estimated_diameter_min": 0.0555334912,
            "estimated_diameter_max": 0.1241766613
        },
        "meters": {
            "estimated_diameter_min": 55.5334911581,
            "estimated_diameter_max": 124.1766612574
        },
        "miles": {
            "estimated_diameter_min": 0.0345069009,
            "estimated_diameter_max": 0.0771597762
        },
        "feet": {
            "estimated_diameter_min": 182.1964991311,
            "estimated_diameter_max": 407.4037573197
        }
    },
    "is_potentially_hazardous_asteroid": false,
    "close_approach_data": [
        {
            "close_approach_date": "2014-08-15",
            "close_approach_date_full": "2014-Aug-15 23:31",
            "epoch_date_close_approach": 1408145460000,
            "relative_velocity": {
                "kilometers_per_second": "3.100865333",
                "kilometers_per_hour": "11163.1151988095",
                "miles_per_hour": "6936.3256633936"
            },
            "miss_distance": {
                "astronomical": "0.2409341987",
                "lunar": "93.7234032943",
                "kilometers": "36043242.935676769",
                "miles": "22396232.6331226522"
            },
            "orbiting_body": "Earth"
        }
    ],
    "orbital_data": {
        "orbit_id": "3",
        "orbit_determination_date": "2017-04-06 08:39:03",
        "first_observation_date": "2014-08-25",
        "last_observation_date": "2014-08-29",
        "data_arc_in_days": 4,
        "observations_used": 8,
        "orbit_uncertainty": "9",
        "minimum_orbit_intersection": ".236814",
        "jupiter_tisserand_invariant": "3.588",
        "epoch_osculation": "2456896.5",
        "eccentricity": ".4249224923233888",
        "semi_major_axis": "2.139064523671801",
        "inclination": "5.639613844595461",
        "ascending_node_longitude": "20.03335721486038",
        "orbital_period": "1142.705333419123",
        "perihelion_distance": "1.230127895032637",
        "perihelion_argument": "298.8706799223052",
        "aphelion_distance": "3.048001152310965",
        "perihelion_time": "2456878.545849468182",
        "mean_anomaly": "5.656308763445486",
        "mean_motion": ".3150418480351652",
        "equinox": "J2000",
        "orbit_class": {
            "orbit_class_type": "AMO",
            "orbit_class_description": "Near-Earth asteroid orbits similar to that of 1221 Amor",
            "orbit_class_range": "1.017 AU < q (perihelion) < 1.3 AU"
        }
    },
    "is_sentry_object": false
}